IDEFIX & ARIANE 42P R/B 
1 27422U 02021B   26001.30157860  .00000627  00000+0  25492-3 0  9990
2 27422  98.5807 300.7408 0012448  30.3333 329.8568 14.30967752234387
AQUA                    
1 27424U 02022A   25365.92641127  .00002078  00000+0  42628-3 0  9999
2 27424  98.4058 327.1196 0001962  94.7781 340.6230 14.61783896258835
CZ-4B R/B               
1 27432U 02024C   26001.16949678  .00000124  00000+0  86887-4 0  9992
2 27432  98.8970  54.8708 0049668 213.9244 213.6002 14.14532609219697
MIDORI II (ADEOS-II)    
1 27597U 02056A   26001.31773782  .00000677  00000+0  28415-3 0  9992
2 27597  98.7662 319.3794 0001157 138.2096 221.9174 14.29223245200674
H-2A R/B                
1 27601U 02056E   26001.31172090  .00000812  00000+0  29912-3 0  9997
2 27601  98.3091 324.2921 0070455   3.3842 160.3690 14.33697660204457
CZ-4B R/B               
1 28059U 03049C   25365.98947763  .00000805  00000+0  19592-3 0  9995
2 28059  98.6801 353.2819 0049330  78.5466 282.1264 14.54931533176753
CZ-2C R/B               
1 28222U 04012C   26001.15770483  .00055157  00000+0  75238-3 0  9997
2 28222  97.7396  60.4022 0016704 195.4460 164.6286 15.57168624193742
SL-16 R/B               
1 28353U 04021B   26001.27986413  .00000440  00000+0  25361-3 0  9994
2 28353  71.0011  13.9579 0004171 167.1566 192.9664 14.14585096113300
CZ-4B R/B               
1 28415U 04035C   26001.08258983  .00013020  00000+0  47566-3 0  9990
2 28415  97.3588  36.1709 0032201 205.8020 154.1615 15.27734268169580
CZ-2C R/B               
1 28480U 04046B   26001.31182010  .00000588  00000+0  23372-3 0  9991
2 28480  98.1998 280.4746 0139448 354.6283   5.3396 14.26956012 98895
ARIANE 5 R/B            
1 28499U 04049H   26001.32736926  .00002721  00000+0  30612-3 0  9992
2 28499  98.2525 167.3128 0083840 208.7256 150.9328 14.85075552135791
CZ-2D R/B               
1 28738U 05024B   25365.59201434  .00043589  00000+0  66267-3 0  9996
2 28738  97.3623  13.5482 0003050 274.1896  85.9009 15.54429220129184
